[{"OBJECT_NAME":"ONEWEB-0421","OBJECT_ID":"2021-132AD","EPOCH":"2026-01-20T04:57:05.014656","MEAN_MOTION":13.1868655,"ECCENTRICITY":0.00019525,"INCLINATION":87.9192,"RA_OF_ASC_NODE":4.8356,"ARG_OF_PERICENTER":77.3302,"MEAN_ANOMALY":282.8048,"EPHEMERIS_TYPE":0,"CLASSIFICATION_TYPE":"U","NORAD_CAT_ID":50496,"ELEMENT_SET_NO":999,"REV_AT_EPOCH":20211,"BSTAR":-9.2676049e-5,"MEAN_MOTION_DOT":-2.4e-7,"MEAN_MOTION_DDOT":0},{"OBJECT_NAME":"ONEWEB-0424","OBJECT_ID":"2021-132AE","EPOCH":"2026-01-20T05:49:19.888320","MEAN_MOTION":13.18685938,"ECCENTRICITY":0.00017381,"INCLINATION":87.919,"RA_OF_ASC_NODE":4.8236,"ARG_OF_PERICENTER":97.8507,"MEAN_ANOMALY":262.2822,"EPHEMERIS_TYPE":0,"CLASSIFICATION_TYPE":"U","NORAD_CAT_ID":50497,"ELEMENT_SET_NO":999,"REV_AT_EPOCH":20214,"BSTAR":9.1344759e-5,"MEAN_MOTION_DOT":4.9e-7,"MEAN_MOTION_DDOT":0},{"OBJECT_NAME":"ONEWEB-0426","OBJECT_ID":"2021-132AF","EPOCH":"2026-01-20T04:52:19.754688","MEAN_MOTION":13.18685799,"ECCENTRICITY":0.00024552,"INCLINATION":87.9191,"RA_OF_ASC_NODE":4.8234,"ARG_OF_PERICENTER":79.2773,"MEAN_ANOMALY":280.8635,"EPHEMERIS_TYPE":0,"CLASSIFICATION_TYPE":"U","NORAD_CAT_ID":50498,"ELEMENT_SET_NO":999,"REV_AT_EPOCH":20208,"BSTAR":0.00010769687,"MEAN_MOTION_DOT":5.5e-7,"MEAN_MOTION_DDOT":0},{"OBJECT_NAME":"ONEWEB-0427","OBJECT_ID":"2021-132AG","EPOCH":"2026-01-20T05:46:56.822880","MEAN_MOTION":13.18687417,"ECCENTRICITY":0.00019812,"INCLINATION":87.919,"RA_OF_ASC_NODE":4.8025,"ARG_OF_PERICENTER":89.2656,"MEAN_ANOMALY":270.8703,"EPHEMERIS_TYPE":0,"CLASSIFICATION_TYPE":"U","NORAD_CAT_ID":50499,"ELEMENT_SET_NO":999,"REV_AT_EPOCH":20211,"BSTAR":-7.3381197e-5,"MEAN_MOTION_DOT":-1.6e-7,"MEAN_MOTION_DDOT":0},{"OBJECT_NAME":"ONEWEB-0429","OBJECT_ID":"2021-132AH","EPOCH":"2026-01-20T05:27:56.752416","MEAN_MOTION":13.18686479,"ECCENTRICITY":0.00016376,"INCLINATION":87.9191,"RA_OF_ASC_NODE":4.8377,"ARG_OF_PERICENTER":83.7211,"MEAN_ANOMALY":276.4108,"EPHEMERIS_TYPE":0,"CLASSIFICATION_TYPE":"U","NORAD_CAT_ID":50500,"ELEMENT_SET_NO":999,"REV_AT_EPOCH":20208,"BSTAR":0.00014876607,"MEAN_MOTION_DOT":7.2e-7,"MEAN_MOTION_DDOT":0},{"OBJECT_NAME":"ONEWEB-0430","OBJECT_ID":"2021-132AJ","EPOCH":"2026-01-19T23:43:32.737440","MEAN_MOTION":13.18685158,"ECCENTRICITY":0.00015672,"INCLINATION":87.9196,"RA_OF_ASC_NODE":4.8819,"ARG_OF_PERICENTER":91.2678,"MEAN_ANOMALY":268.8633,"EPHEMERIS_TYPE":0,"CLASSIFICATION_TYPE":"U","NORAD_CAT_ID":50501,"ELEMENT_SET_NO":999,"REV_AT_EPOCH":20209,"BSTAR":-3.8938726e-5,"MEAN_MOTION_DOT":-2.0e-8,"MEAN_MOTION_DDOT":0},{"OBJECT_NAME":"ONEWEB-0432","OBJECT_ID":"2021-132AK","EPOCH":"2026-01-19T22:40:33.971232","MEAN_MOTION":13.1867955,"ECCENTRICITY":0.00023369,"INCLINATION":87.9188,"RA_OF_ASC_NODE":4.8602,"ARG_OF_PERICENTER":106.7732,"MEAN_ANOMALY":253.3656,"EPHEMERIS_TYPE":0,"CLASSIFICATION_TYPE":"U","NORAD_CAT_ID":50502,"ELEMENT_SET_NO":999,"REV_AT_EPOCH":20204,"BSTAR":-0.00017640176,"MEAN_MOTION_DOT":-5.7e-7,"MEAN_MOTION_DDOT":0},{"OBJECT_NAME":"ONEWEB-0440","OBJECT_ID":"2021-132AL","EPOCH":"2026-01-19T22:22:47.177472","MEAN_MOTION":13.18685675,"ECCENTRICITY":0.00017532,"INCLINATION":87.9193,"RA_OF_ASC_NODE":4.8823,"ARG_OF_PERICENTER":72.0421,"MEAN_ANOMALY":288.0902,"EPHEMERIS_TYPE":0,"CLASSIFICATION_TYPE":"U","NORAD_CAT_ID":50503,"ELEMENT_SET_NO":999,"REV_AT_EPOCH":20203,"BSTAR":-0.00017670246,"MEAN_MOTION_DOT":-5.7e-7,"MEAN_MOTION_DDOT":0},{"OBJECT_NAME":"ONEWEB-0450","OBJECT_ID":"2021-132AM","EPOCH":"2026-01-20T05:30:31.645152","MEAN_MOTION":13.18686525,"ECCENTRICITY":0.00014848,"INCLINATION":87.9184,"RA_OF_ASC_NODE":4.843,"ARG_OF_PERICENTER":84.1768,"MEAN_ANOMALY":275.9534,"EPHEMERIS_TYPE":0,"CLASSIFICATION_TYPE":"U","NORAD_CAT_ID":50504,"ELEMENT_SET_NO":999,"REV_AT_EPOCH":20210,"BSTAR":-6.076774e-6,"MEAN_MOTION_DOT":1.1e-7,"MEAN_MOTION_DDOT":0},{"OBJECT_NAME":"ONEWEB-0410","OBJECT_ID":"2022-012A","EPOCH":"2026-01-20T01:34:47.544384","MEAN_MOTION":13.17648074,"ECCENTRICITY":0.00032112,"INCLINATION":87.9095,"RA_OF_ASC_NODE":35.2826,"ARG_OF_PERICENTER":93.3754,"MEAN_ANOMALY":266.7745,"EPHEMERIS_TYPE":0,"CLASSIFICATION_TYPE":"U","NORAD_CAT_ID":51622,"ELEMENT_SET_NO":999,"REV_AT_EPOCH":19419,"BSTAR":-5.6043388e-5,"MEAN_MOTION_DOT":-9.0e-8,"MEAN_MOTION_DDOT":0},{"OBJECT_NAME":"ONEWEB-0411","OBJECT_ID":"2022-012B","EPOCH":"2026-01-20T02:36:17.221824","MEAN_MOTION":13.10372845,"ECCENTRICITY":0.00015033,"INCLINATION":87.8763,"RA_OF_ASC_NODE":65.7804,"ARG_OF_PERICENTER":115.9939,"MEAN_ANOMALY":244.1343,"EPHEMERIS_TYPE":0,"CLASSIFICATION_TYPE":"U","NORAD_CAT_ID":51623,"ELEMENT_SET_NO":999,"REV_AT_EPOCH":18989,"BSTAR":0.0020242285,"MEAN_MOTION_DOT":7.19e-6,"MEAN_MOTION_DDOT":0},{"OBJECT_NAME":"ONEWEB-0415","OBJECT_ID":"2022-012C","EPOCH":"2026-01-20T02:31:30.495648","MEAN_MOTION":13.1037521,"ECCENTRICITY":0.00016777,"INCLINATION":87.8769,"RA_OF_ASC_NODE":65.7836,"ARG_OF_PERICENTER":107.0761,"MEAN_ANOMALY":253.055,"EPHEMERIS_TYPE":0,"CLASSIFICATION_TYPE":"U","NORAD_CAT_ID":51624,"ELEMENT_SET_NO":999,"REV_AT_EPOCH":18989,"BSTAR":0.0019020332,"MEAN_MOTION_DOT":6.77e-6,"MEAN_MOTION_DDOT":0},{"OBJECT_NAME":"ONEWEB-0416","OBJECT_ID":"2022-012D","EPOCH":"2026-01-20T02:48:14.532768","MEAN_MOTION":13.10372257,"ECCENTRICITY":0.00019933,"INCLINATION":87.8766,"RA_OF_ASC_NODE":65.8019,"ARG_OF_PERICENTER":113.6154,"MEAN_ANOMALY":246.5183,"EPHEMERIS_TYPE":0,"CLASSIFICATION_TYPE":"U","NORAD_CAT_ID":51625,"ELEMENT_SET_NO":999,"REV_AT_EPOCH":18993,"BSTAR":0.0019305373,"MEAN_MOTION_DOT":6.87e-6,"MEAN_MOTION_DDOT":0},{"OBJECT_NAME":"ONEWEB-0422","OBJECT_ID":"2022-012E","EPOCH":"2026-01-20T07:17:24.215136","MEAN_MOTION":13.17649881,"ECCENTRICITY":0.00013683,"INCLINATION":87.9093,"RA_OF_ASC_NODE":35.2379,"ARG_OF_PERICENTER":72.2589,"MEAN_ANOMALY":287.8692,"EPHEMERIS_TYPE":0,"CLASSIFICATION_TYPE":"U","NORAD_CAT_ID":51626,"ELEMENT_SET_NO":999,"REV_AT_EPOCH":19433,"BSTAR":6.4364998e-5,"MEAN_MOTION_DOT":3.8e-7,"MEAN_MOTION_DDOT":0},{"OBJECT_NAME":"ONEWEB-0423","OBJECT_ID":"2022-012F","EPOCH":"2026-01-20T01:39:37.652256","MEAN_MOTION":13.17650305,"ECCENTRICITY":0.00017913,"INCLINATION":87.9091,"RA_OF_ASC_NODE":35.2945,"ARG_OF_PERICENTER":87.4196,"MEAN_ANOMALY":272.7141,"EPHEMERIS_TYPE":0,"CLASSIFICATION_TYPE":"U","NORAD_CAT_ID":51627,"ELEMENT_SET_NO":999,"REV_AT_EPOCH":19419,"BSTAR":-0.0001100179,"MEAN_MOTION_DOT":-3.0e-7,"MEAN_MOTION_DDOT":0},{"OBJECT_NAME":"ONEWEB-0425","OBJECT_ID":"2022-012G","EPOCH":"2026-01-20T01:12:37.134720","MEAN_MOTION":13.10370643,"ECCENTRICITY":0.00021636,"INCLINATION":87.877,"RA_OF_ASC_NODE":65.7897,"ARG_OF_PERICENTER":95.6905,"MEAN_ANOMALY":264.4469,"EPHEMERIS_TYPE":0,"CLASSIFICATION_TYPE":"U","NORAD_CAT_ID":51628,"ELEMENT_SET_NO":999,"REV_AT_EPOCH":18992,"BSTAR":0.00055924976,"MEAN_MOTION_DOT":2.08e-6,"MEAN_MOTION_DDOT":0},{"OBJECT_NAME":"ONEWEB-0428","OBJECT_ID":"2022-012H","EPOCH":"2026-01-20T02:33:53.919648","MEAN_MOTION":13.1037468,"ECCENTRICITY":0.00017658,"INCLINATION":87.8767,"RA_OF_ASC_NODE":65.7943,"ARG_OF_PERICENTER":96.8435,"MEAN_ANOMALY":263.2893,"EPHEMERIS_TYPE":0,"CLASSIFICATION_TYPE":"U","NORAD_CAT_ID":51629,"ELEMENT_SET_NO":999,"REV_AT_EPOCH":18989,"BSTAR":0.0020903708,"MEAN_MOTION_DOT":7.42e-6,"MEAN_MOTION_DDOT":0}]
