ONEWEB-0421             
1 50496U 21132AD  26020.20630804 -.00000024  00000+0 -92676-4 0  9997
2 50496  87.9192   4.8356 0001952  77.3302 282.8048 13.18686550202118
ONEWEB-0424             
1 50497U 21132AE  26020.24259130  .00000049  00000+0  91345-4 0  9998
2 50497  87.9190   4.8236 0001738  97.8507 262.2822 13.18685938202144
ONEWEB-0426             
1 50498U 21132AF  26020.20300642  .00000055  00000+0  10770-3 0  9999
2 50498  87.9191   4.8234 0002455  79.2773 280.8635 13.18685799202086
ONEWEB-0427             
1 50499U 21132AG  26020.24093545 -.00000016  00000+0 -73381-4 0  9992
2 50499  87.9190   4.8025 0001981  89.2656 270.8703 13.18687417202116
ONEWEB-0429             
1 50500U 21132AH  26020.22774019  .00000072  00000+0  14877-3 0  9999
2 50500  87.9191   4.8377 0001637  83.7211 276.4108 13.18686479202088
ONEWEB-0430             
1 50501U 21132AJ  26019.98857335 -.00000002  00000+0 -38939-4 0  9995
2 50501  87.9196   4.8819 0001567  91.2678 268.8633 13.18685158202090
ONEWEB-0432             
1 50502U 21132AK  26019.94483763 -.00000057  00000+0 -17640-3 0  9997
2 50502  87.9188   4.8602 0002336 106.7732 253.3656 13.18679550202048
ONEWEB-0440             
1 50503U 21132AL  26019.93249048 -.00000057  00000+0 -17670-3 0  9996
2 50503  87.9193   4.8823 0001753  72.0421 288.0902 13.18685675202035
ONEWEB-0450             
1 50504U 21132AM  26020.22953293  .00000011  00000+0 -60768-5 0  9992
2 50504  87.9184   4.8430 0001484  84.1768 275.9534 13.18686525202108
ONEWEB-0410             
1 51622U 22012A   26020.06582806 -.00000009  00000+0 -56043-4 0  9990
2 51622  87.9095  35.2826 0003211  93.3754 266.7745 13.17648074194192
ONEWEB-0411             
1 51623U 22012B   26020.10853266  .00000719  00000+0  20242-2 0  9993
2 51623  87.8763  65.7804 0001503 115.9939 244.1343 13.10372845189894
ONEWEB-0415             
1 51624U 22012C   26020.10521407  .00000677  00000+0  19020-2 0  9998
2 51624  87.8769  65.7836 0001677 107.0761 253.0550 13.10375210189891
ONEWEB-0416             
1 51625U 22012D   26020.11683487  .00000687  00000+0  19305-2 0  9994
2 51625  87.8766  65.8019 0001993 113.6154 246.5183 13.10372257189935
ONEWEB-0422             
1 51626U 22012E   26020.30375249  .00000038  00000+0  64365-4 0  9998
2 51626  87.9093  35.2379 0001368  72.2589 287.8692 13.17649881194338
ONEWEB-0423             
1 51627U 22012F   26020.06918579 -.00000030  00000+0 -11002-3 0  9994
2 51627  87.9091  35.2945 0001791  87.4196 272.7141 13.17650305194197
ONEWEB-0425             
1 51628U 22012G   26020.05042980  .00000208  00000+0  55925-3 0  9995
2 51628  87.8770  65.7897 0002163  95.6905 264.4469 13.10370643189921
ONEWEB-0428             
1 51629U 22012H   26020.10687407  .00000742  00000+0  20904-2 0  9992
2 51629  87.8767  65.7943 0001765  96.8435 263.2893 13.10374680189897
